CCSDS_OMM_VERS = 2.0
CREATION_DATE  = 
ORIGINATOR     = 

OBJECT_NAME    = CZ-2C R/B
OBJECT_ID      = 2022-132E
CENTER_NAME    = EARTH
REF_FRAME      = TEME
TIME_SYSTEM    = UTC
MEAN_ELEMENT_THEORY = SGP/SGP4

EPOCH          = 2026-02-11T12:45:22.912416
MEAN_MOTION    = 15.59562016
ECCENTRICITY   = .00187741
INCLINATION    = 97.2963
RA_OF_ASC_NODE = 45.1048
ARG_OF_PERICENTER = 178.8674
MEAN_ANOMALY   = 181.2629

EPHEMERIS_TYPE = 0
CLASSIFICATION_TYPE = U
NORAD_CAT_ID   = 54039
ELEMENT_SET_NO = 999
REV_AT_EPOCH   = 18629
BSTAR          = .52445213E-3
MEAN_MOTION_DOT = .42046E-3
MEAN_MOTION_DDOT = 0

CCSDS_OMM_VERS = 2.0
CREATION_DATE  = 
ORIGINATOR     = 

OBJECT_NAME    = GSLV R/B
OBJECT_ID      = 2022-138AN
CENTER_NAME    = EARTH
REF_FRAME      = TEME
TIME_SYSTEM    = UTC
MEAN_ELEMENT_THEORY = SGP/SGP4

EPOCH          = 2026-02-11T07:27:47.856384
MEAN_MOTION    = 14.96572667
ECCENTRICITY   = .00194834
INCLINATION    = 87.3864
RA_OF_ASC_NODE = 175.1887
ARG_OF_PERICENTER = 245.0738
MEAN_ANOMALY   = 114.8469

EPHEMERIS_TYPE = 0
CLASSIFICATION_TYPE = U
NORAD_CAT_ID   = 54149
ELEMENT_SET_NO = 999
REV_AT_EPOCH   = 17998
BSTAR          = .39253669E-3
MEAN_MOTION_DOT = .4509E-4
MEAN_MOTION_DDOT = 0

CCSDS_OMM_VERS = 2.0
CREATION_DATE  = 
ORIGINATOR     = 

OBJECT_NAME    = XRISM
OBJECT_ID      = 2023-137A
CENTER_NAME    = EARTH
REF_FRAME      = TEME
TIME_SYSTEM    = UTC
MEAN_ELEMENT_THEORY = SGP/SGP4

EPOCH          = 2026-02-11T11:41:13.188480
MEAN_MOTION    = 15.11175071
ECCENTRICITY   = .00080162
INCLINATION    = 31.0021
RA_OF_ASC_NODE = 93.0952
ARG_OF_PERICENTER = 137.4103
MEAN_ANOMALY   = 222.7159

EPHEMERIS_TYPE = 0
CLASSIFICATION_TYPE = U
NORAD_CAT_ID   = 57800
ELEMENT_SET_NO = 999
REV_AT_EPOCH   = 13382
BSTAR          = .39237508E-3
MEAN_MOTION_DOT = .6851E-4
MEAN_MOTION_DDOT = 0

CCSDS_OMM_VERS = 2.0
CREATION_DATE  = 
ORIGINATOR     = 

OBJECT_NAME    = ACS3
OBJECT_ID      = 2024-077B
CENTER_NAME    = EARTH
REF_FRAME      = TEME
TIME_SYSTEM    = UTC
MEAN_ELEMENT_THEORY = SGP/SGP4

EPOCH          = 2026-02-10T20:16:32.221632
MEAN_MOTION    = 13.88488318
ECCENTRICITY   = .00459456
INCLINATION    = 97.2203
RA_OF_ASC_NODE = 348.9925
ARG_OF_PERICENTER = 159.1023
MEAN_ANOMALY   = 201.2031

EPHEMERIS_TYPE = 0
CLASSIFICATION_TYPE = U
NORAD_CAT_ID   = 59588
ELEMENT_SET_NO = 999
REV_AT_EPOCH   = 9047
BSTAR          = .15162346E-1
MEAN_MOTION_DOT = .18373E-3
MEAN_MOTION_DDOT = 0

CCSDS_OMM_VERS = 2.0
CREATION_DATE  = 
ORIGINATOR     = 

OBJECT_NAME    = SZ-21 MODULE
OBJECT_ID      = 2025-246C
CENTER_NAME    = EARTH
REF_FRAME      = TEME
TIME_SYSTEM    = UTC
MEAN_ELEMENT_THEORY = SGP/SGP4

EPOCH          = 2026-02-11T06:00:48.705408
MEAN_MOTION    = 15.66534609
ECCENTRICITY   = .00025886
INCLINATION    = 41.4767
RA_OF_ASC_NODE = 5.8583
ARG_OF_PERICENTER = 291.1599
MEAN_ANOMALY   = 68.8966

EPHEMERIS_TYPE = 0
CLASSIFICATION_TYPE = U
NORAD_CAT_ID   = 66515
ELEMENT_SET_NO = 999
REV_AT_EPOCH   = 1392
BSTAR          = .36324923E-3
MEAN_MOTION_DOT = .38901E-3
MEAN_MOTION_DDOT = 0

