CZ-2C R/B               
1 54039U 22132E   26042.53151519  .00042046  00000+0  52445-3 0  9993
2 54039  97.2963  45.1048 0018774 178.8674 181.2629 15.59562016186294
GSLV R/B                
1 54149U 22138AN  26042.31097056  .00004509  00000+0  39254-3 0  9997
2 54149  87.3864 175.1887 0019483 245.0738 114.8469 14.96572667179982
XRISM                   
1 57800U 23137A   26042.48695820  .00006851  00000+0  39238-3 0  9999
2 57800  31.0021  93.0952 0008016 137.4103 222.7159 15.11175071133825
ACS3                    
1 59588U 24077B   26041.84481738  .00018373  00000+0  15162-1 0  9998
2 59588  97.2203 348.9925 0045945 159.1023 201.2031 13.88488318 90479
SZ-21 MODULE            
1 66515U 25246C   26042.25056372  .00038901  00000+0  36325-3 0  9998
2 66515  41.4767   5.8583 0002588 291.1599  68.8966 15.66534609 13925
